{"fetched_at":"2026-07-07T07:58:46.063Z","source":"https://celestrak.org/NORAD/elements/gp.php?NAME=PLEIADES&FORMAT=JSON","constellation":"pleiades-neo","records":[{"OBJECT_NAME":"PLEIADES NEO 3","OBJECT_ID":"2021-034A","EPOCH":"2026-07-06T20:06:05.716224","CLASSIFICATION_TYPE":"U","MEAN_MOTION":14.8166922,"ECCENTRICITY":0.0001383,"INCLINATION":97.894,"RA_OF_ASC_NODE":262.3209,"ARG_OF_PERICENTER":80.6486,"MEAN_ANOMALY":279.4883,"EPHEMERIS_TYPE":0,"NORAD_CAT_ID":48268,"ELEMENT_SET_NO":999,"REV_AT_EPOCH":28056,"BSTAR":-0.00037889,"MEAN_MOTION_DOT":-0.00003032,"MEAN_MOTION_DDOT":0},{"OBJECT_NAME":"PLEIADES NEO 4","OBJECT_ID":"2021-073E","EPOCH":"2026-07-06T19:17:27.142368","CLASSIFICATION_TYPE":"U","MEAN_MOTION":14.816761,"ECCENTRICITY":0.0001298,"INCLINATION":97.8931,"RA_OF_ASC_NODE":262.2844,"ARG_OF_PERICENTER":90.9146,"MEAN_ANOMALY":269.2215,"EPHEMERIS_TYPE":0,"NORAD_CAT_ID":49070,"ELEMENT_SET_NO":999,"REV_AT_EPOCH":26427,"BSTAR":-0.000010095,"MEAN_MOTION_DOT":-0.00000131,"MEAN_MOTION_DDOT":0}]}
