PLEIADES NEO 3          
1 48268U 21034A   26187.83756616 -.00003032  00000+0 -37889-3 0  9991
2 48268  97.8940 262.3209 0001383  80.6486 279.4883 14.81669220280569
PLEIADES NEO 4          
1 49070U 21073E   26187.80378637 -.00000131  00000+0 -10095-4 0  9994
2 49070  97.8931 262.2844 0001298  90.9146 269.2215 14.81676100264278
